{
  "type": "FeatureCollection",
  "features": [
    {
      "type": "Feature",
      "properties": {
        "norad_id": 67230,
        "name": "ELECTRON R/B",
        "group": "last-30-days",
        "lat": -37.49243313841847,
        "lon": 34.570880375042144,
        "alt_km": 229.39424999819767,
        "timestamp": "2025-12-26T08:37:53.295715+00:00",
        "meta_object_name": "ELECTRON R/B",
        "meta_object_id": "2025-307C",
        "meta_epoch": "2025-12-21T08:41:59.140320",
        "meta_mean_motion": 15.55087105,
        "meta_eccentricity": 0.02614087,
        "meta_inclination": 41.982,
        "meta_ra_of_asc_node": 123.1026,
        "meta_arg_of_pericenter": 268.141,
        "meta_mean_anomaly": 88.9482,
        "meta_ephemeris_type": 0,
        "meta_classification_type": "U",
        "meta_norad_cat_id": 67230,
        "meta_element_set_no": 999,
        "meta_rev_at_epoch": 1,
        "meta_bstar": 0.00020247584,
        "meta_mean_motion_dot": 0.00071881,
        "meta_mean_motion_ddot": 8.106877e-06,
        "tle_line1": "1 67230U 25307C   25355.36249005  .00071881  81069-5  20248-3 0  9997",
        "tle_line2": "2 67230  41.9820 123.1026 0261408 268.1410  88.9482 15.55087105    19"
      },
      "geometry": {
        "type": "Point",
        "coordinates": [
          34.570880375042144,
          -37.49243313841847
        ]
      }
    },
    {
      "type": "Feature",
      "properties": {
        "norad_id": 67231,
        "name": "CZ-12A R/B",
        "group": "last-30-days",
        "lat": 20.738064238887176,
        "lon": -134.2346531650408,
        "alt_km": 186.49157000104697,
        "timestamp": "2025-12-26T08:37:53.295727+00:00",
        "meta_object_name": "CZ-12A R/B",
        "meta_object_id": "2025-308A",
        "meta_epoch": "2025-12-26T03:33:32.887584",
        "meta_mean_motion": 16.26493686,
        "meta_eccentricity": 0.0020393,
        "meta_inclination": 69.7062,
        "meta_ra_of_asc_node": 54.4745,
        "meta_arg_of_pericenter": 148.0364,
        "meta_mean_anomaly": 212.21,
        "meta_ephemeris_type": 0,
        "meta_classification_type": "U",
        "meta_norad_cat_id": 67231,
        "meta_element_set_no": 999,
        "meta_rev_at_epoch": 50,
        "meta_bstar": 0.00050746,
        "meta_mean_motion_dot": 0.01744878,
        "meta_mean_motion_ddot": 4.4026e-06,
        "tle_line1": "1 67231U 25308A   25360.14829731  .01744878  44026-5  50746-3 0  9993",
        "tle_line2": "2 67231  69.7062  54.4745 0020393 148.0364 212.2100 16.26493686   507"
      },
      "geometry": {
        "type": "Point",
        "coordinates": [
          -134.2346531650408,
          20.738064238887176
        ]
      }
    }
  ]
}